MEAN_MOTION;ECCENTRICITY;INCLINATION;RA_OF_ASC_NODE;ARG_OF_PERICENTER;MEAN_ANOMALY;BSTAR;MEAN_MOTION_DOT;MEAN_MOTION_DDOT;TYPE
14.54720807;0.000293;47.0054;55.4349;294.9432;65.1148;2.2707E-5;-6.8E-7;0;Orbcomm
14.54720843;0.0002925;47.0055;54.4671;295.6577;64.4005;2.3232E-5;-6.5E-7;0;Orbcomm
14.54720961;0.0002901;47.0055;52.2091;297.3684;62.6904;2.3965E-5;-6.2E-7;0;Orbcomm
14.54721188;0.0002882;47.0057;48.6607;299.9274;60.1324;2.5695E-5;-5.5E-7;0;Orbcomm
14.54721321;0.0002862;47.0058;45.1124;302.8571;57.2038;2.4988E-5;-5.8E-7;0;Orbcomm
14.54721441;0.0002842;47.0059;43.177;304.4059;55.6557;2.591E-5;-5.4E-7;0;Orbcomm
14.54721586;0.0002823;47.0059;40.2738;306.6001;53.4624;2.5687E-5;-5.5E-7;0;Orbcomm
14.5472167;0.0002806;47.006;38.661;307.9882;52.0748;2.6E-5;-5.3E-7;0;Orbcomm
14.54722079;0.0002746;47.0061;31.2418;313.9116;46.1542;2.6704E-5;-5.0E-7;0;Orbcomm
14.54722152;0.0002724;47.0062;29.629;315.3804;44.686;2.6829E-5;-5.0E-7;0;Orbcomm
14.54722314;0.0002693;47.0062;26.4032;317.9976;42.0701;2.6739E-5;-5.0E-7;0;Orbcomm
14.54722424;0.000267;47.0062;24.7904;319.4771;40.5914;2.8338E-5;-4.3E-7;0;Orbcomm
14.54722611;0.000263;47.0063;21.5646;322.3032;37.7667;2.86E-5;-4.2E-7;0;Orbcomm
14.54722888;0.0002563;47.0064;15.7584;327.3788;32.6937;2.8726E-5;-4.2E-7;0;Orbcomm
14.54722947;0.0002555;47.0064;15.1133;328.1937;31.8792;2.925E-5;-3.9E-7;0;Orbcomm
14.54723211;0.0002504;47.0064;10.5973;332.168;27.907;3.0244E-5;-3.5E-7;0;Orbcomm
14.5472342;0.0002466;47.0065;7.6942;334.671;25.4053;3.1881E-5;-2.8E-7;0;Orbcomm
14.54723543;0.0002446;47.0065;6.0814;336.2114;23.8657;3.34E-5;-2.1E-7;0;Orbcomm
14.54723778;0.000239;47.0065;1.8881;339.9665;20.1125;3.3504E-5;-2.1E-7;0;Orbcomm
14.5472407;0.0002336;47.0065;357.0497;344.4673;15.6139;3.3689E-5;-2.0E-7;0;Orbcomm
14.54724277;0.0002292;47.0064;353.824;347.2729;12.8097;3.3164E-5;-2.2E-7;0;Orbcomm
14.54724375;0.0002271;47.0064;352.5338;348.3609;11.7222;3.3986E-5;-1.9E-7;0;Orbcomm
14.54724885;0.0002149;47.0062;344.147;356.8361;3.251;3.4303E-5;-1.7E-7;0;Orbcomm
14.54724951;0.0002134;47.0062;342.8568;358.1514;1.9362;3.4205E-5;-1.8E-7;0;Orbcomm
14.5472513;0.0002089;47.0061;339.631;1.4847;358.6043;3.3498E-5;-2.1E-7;0;Orbcomm
14.54725399;0.0002028;47.006;335.1149;6.1962;353.8947;3.4395E-5;-1.7E-7;0;Orbcomm
14.54725411;0.000202;47.006;334.7924;6.5226;353.5684;3.4411E-5;-1.7E-7;0;Orbcomm
14.54725606;0.0001969;47.0058;330.9214;10.5847;349.5078;3.3871E-5;-1.9E-7;0;Orbcomm
14.54725692;0.0001949;47.0058;329.3086;12.5323;347.5609;3.362E-5;-2.0E-7;0;Orbcomm
14.54725974;0.000189;47.0057;324.7925;17.498;342.5969;3.4277E-5;-1.8E-7;0;Orbcomm
14.5472631;0.0001825;47.0056;319.9539;23.407;336.6897;3.5339E-5;-1.3E-7;0;Orbcomm
14.54726544;0.0001755;47.0055;315.1153;30.3354;329.7632;3.306E-5;-2.3E-7;0;Orbcomm
14.54726722;0.0001705;47.0054;311.2443;35.2798;324.8199;3.1258E-5;-3.1E-7;0;Orbcomm
14.5472693;0.0001663;47.0053;307.0508;40.0838;320.0169;3.0101E-5;-3.6E-7;0;Orbcomm
14.54726957;0.000166;47.0053;306.4056;40.8558;319.245;3.0159E-5;-3.5E-7;0;Orbcomm
14.547271;0.000163;47.0051;302.8571;44.3614;315.7401;2.8492E-5;-4.2E-7;0;Orbcomm
14.54727286;0.0001598;47.005;299.3087;49.0906;311.0116;2.899E-5;-4.0E-7;0;Orbcomm
14.54727344;0.0001585;47.0049;298.3409;50.8261;309.2764;2.8538E-5;-4.2E-7;0;Orbcomm
14.54727786;0.0001519;47.0048;290.2762;62.1337;297.9701;3.1366E-5;-3.0E-7;0;Orbcomm
14.5472791;0.0001504;47.0047;287.6955;66.3008;293.8034;3.1255E-5;-3.1E-7;0;Orbcomm
14.54728041;0.0001486;47.0047;285.1148;70.0919;290.0125;3.0947E-5;-3.2E-7;0;Orbcomm
14.5472808;0.0001496;47.0046;284.4696;70.6911;289.4135;3.0588E-5;-3.3E-7;0;Orbcomm
14.54728297;0.0001481;47.0046;280.2759;76.5097;283.5952;3.1107E-5;-3.1E-7;0;Orbcomm
14.54728349;0.0001471;47.0046;278.663;79.6319;280.4731;2.9723E-5;-3.7E-7;0;Orbcomm
14.54728585;0.0001449;47.0046;274.1467;87.5487;272.5563;2.8339E-5;-4.3E-7;0;Orbcomm
14.547286;0.000145;47.0046;273.8242;87.9961;272.1089;2.8092E-5;-4.4E-7;0;Orbcomm
14.54728757;0.0001444;47.0047;270.5982;93.4537;266.6512;2.591E-5;-5.4E-7;0;Orbcomm
14.54728913;0.0001442;47.0046;266.4047;99.7691;260.3356;2.3632E-5;-6.3E-7;0;Orbcomm
14.5472899;0.0001451;47.0046;264.7918;102.2489;257.8557;2.3377E-5;-6.5E-7;0;Orbcomm
14.54729245;0.0001471;47.0046;259.6305;109.1432;250.9612;2.2783E-5;-6.7E-7;0;Orbcomm
14.54729349;0.0001483;47.0047;256.7272;113.5484;246.5556;2.1127E-5;-7.4E-7;0;Orbcomm
14.54729563;0.0001514;47.0046;250.5983;122.7385;237.3645;2.067E-5;-7.6E-7;0;Orbcomm
14.54729744;0.0001549;47.0046;245.7595;129.9571;230.1449;2.0826E-5;-7.6E-7;0;Orbcomm
14.54729744;0.0001549;47.0046;245.7595;129.9571;230.1449;2.0826E-5;-7.6E-7;0;Orbcomm
14.54729919;0.0001587;47.0046;241.2433;136.3911;223.7098;2.1769E-5;-7.2E-7;0;Orbcomm
14.54729981;0.0001594;47.0047;239.6304;138.6196;221.4809;2.2021E-5;-7.0E-7;0;Orbcomm
14.54730038;0.0001614;47.0047;238.0175;140.7909;219.3093;2.198E-5;-7.1E-7;0;Orbcomm
14.54730168;0.000164;47.0047;234.7917;145.0952;215.004;2.3062E-5;-6.6E-7;0;Orbcomm
14.54730214;0.0001662;47.0047;233.5013;146.7439;213.355;2.2876E-5;-6.7E-7;0;Orbcomm
14.5473025;0.000167;47.0048;232.5337;147.9469;212.1517;2.3222E-5;-6.5E-7;0;Orbcomm
14.5473042;0.0001696;47.0048;229.3079;151.8495;208.2481;2.4355E-5;-6.0E-7;0;Orbcomm
14.54730608;0.0001754;47.0048;224.4692;157.7759;202.3201;2.3431E-5;-6.4E-7;0;Orbcomm
14.5473085;0.0001819;47.0048;219.3081;163.6914;196.4029;2.2711E-5;-6.7E-7;0;Orbcomm
14.54730912;0.0001834;47.0048;218.0178;164.8365;195.2574;2.2702E-5;-6.8E-7;0;Orbcomm
14.54731061;0.0001881;47.0048;214.4695;169.1624;190.9301;2.1296E-5;-7.4E-7;0;Orbcomm
14.54731121;0.0001893;47.0048;213.5018;169.9977;190.0945;2.187E-5;-7.1E-7;0;Orbcomm
14.54731365;0.000196;47.0047;208.9858;175.1825;184.9078;2.3063E-5;-6.6E-7;0;Orbcomm
14.54731548;0.000203;47.0045;204.4697;179.9557;180.1328;2.2652E-5;-6.8E-7;0;Orbcomm
14.54731639;0.0002052;47.0045;202.2117;182.4238;177.6636;2.2439E-5;-6.9E-7;0;Orbcomm
14.54731693;0.0002073;47.0044;200.5988;183.9309;176.1559;2.209E-5;-7.0E-7;0;Orbcomm
14.54731825;0.0002115;47.0043;197.0504;187.4334;172.6519;2.2726E-5;-6.7E-7;0;Orbcomm
14.54731906;0.0002133;47.0043;195.7601;188.6217;171.463;2.4042E-5;-6.2E-7;0;Orbcomm
14.54732122;0.0002184;47.0042;191.5665;192.6918;167.3911;2.613E-5;-5.3E-7;0;Orbcomm
14.54732146;0.0002187;47.0042;191.2439;192.9517;167.1312;2.6731E-5;-5.0E-7;0;Orbcomm
14.54732367;0.0002245;47.0041;186.4052;197.278;162.8028;2.7688E-5;-4.6E-7;0;Orbcomm
14.5473263;0.0002298;47.0041;181.5665;201.7507;158.328;2.9462E-5;-3.8E-7;0;Orbcomm
14.54732645;0.00023;47.0041;181.2439;202.0626;158.016;2.9383E-5;-3.9E-7;0;Orbcomm
14.5473287;0.0002351;47.004;176.4052;206.4704;153.606;2.8302E-5;-4.3E-7;0;Orbcomm
14.5473306;0.0002401;47.0039;171.8891;210.4203;149.6542;2.6145E-5;-5.3E-7;0;Orbcomm
14.54733173;0.0002429;47.0039;169.3084;212.816;147.2574;2.5277E-5;-5.6E-7;0;Orbcomm
14.54733254;0.0002448;47.0039;167.373;214.381;145.6916;2.43E-5;-6.1E-7;0;Orbcomm
14.54733375;0.0002481;47.0038;164.4696;216.8453;143.2261;2.2607E-5;-6.8E-7;0;Orbcomm
14.54733527;0.0002527;47.0037;159.3083;221.0371;139.0323;1.8518E-5;-8.6E-7;0;Orbcomm
14.54733564;0.0002531;47.0037;158.3406;221.8255;138.2436;1.883E-5;-8.4E-7;0;Orbcomm
14.54733728;0.0002576;47.0036;153.5017;225.5832;134.4841;1.8037E-5;-8.8E-7;0;Orbcomm
14.54733739;0.0002578;47.0036;153.1792;225.8681;134.1991;1.7836E-5;-8.9E-7;0;Orbcomm
14.54733878;0.0002614;47.0035;148.6629;229.4906;130.575;1.7406E-5;-9.0E-7;0;Orbcomm
14.54733878;0.0002614;47.0035;148.6629;229.4906;130.575;1.7406E-5;-9.0E-7;0;Orbcomm
14.54734103;0.0002639;47.0035;144.1466;233.0813;126.9829;2.0412E-5;-7.8E-7;0;Orbcomm
14.54734186;0.0002664;47.0036;140.9206;235.6415;124.4218;1.9208E-5;-8.3E-7;0;Orbcomm
14.54734407;0.0002672;47.0036;139.3077;236.7887;123.2742;2.4232E-5;-6.1E-7;0;Orbcomm
14.5473465;0.00027;47.0037;136.0817;239.2246;120.8373;2.7734E-5;-4.6E-7;0;Orbcomm
14.54735143;0.0002697;47.0036;134.7915;240.2525;119.8091;4.2995E-5;2.0E-7;0;Orbcomm
14.54735521;0.0002722;47.0038;130.2753;243.6906;116.3699;4.2607E-5;1.8E-7;0;Orbcomm
14.547361;0.0002729;47.0039;125.759;247.1806;112.879;4.9518E-5;4.8E-7;0;Orbcomm
14.54736537;0.0002755;47.0041;122.2105;249.5694;110.4895;5.1311E-5;5.6E-7;0;Orbcomm
14.54736684;0.0002754;47.0041;120.9202;250.6805;109.3781;5.1656E-5;5.8E-7;0;Orbcomm
14.54736892;0.0002768;47.0042;117.3718;253.376;106.682;4.4991E-5;2.9E-7;0;Orbcomm
14.5473734;0.0002769;47.0043;111.8879;257.4423;102.6151;4.1478E-5;1.4E-7;0;Orbcomm
14.54737732;0.0002794;47.0045;107.0491;260.7526;99.3042;3.9428E-5;5.0E-8;0;Orbcomm
14.54738084;0.000278;47.0047;99.952;265.9506;94.106;3.4064E-5;-1.9E-7;0;Orbcomm
14.5473816;0.0002778;47.0048;97.6941;267.5129;92.5438;3.1812E-5;-2.8E-7;0;Orbcomm
14.54738284;0.0002779;47.0049;95.1133;269.2904;90.7662;3.0996E-5;-3.2E-7;0;Orbcomm
14.54738308;0.0002766;47.0049;94.1455;269.9397;90.117;3.0581E-5;-3.4E-7;0;Orbcomm
14.54738308;0.0002769;47.005;93.1778;270.6044;89.4523;2.8947E-5;-4.1E-7;0;Orbcomm
14.54738401;0.0002738;47.0051;89.3069;273.4754;86.5817;2.6313E-5;-5.2E-7;0;Orbcomm
14.54738417;0.0002738;47.0052;88.3392;274.2383;85.8188;2.5334E-5;-5.6E-7;0;Orbcomm
14.5473853;0.0002729;47.0054;84.4682;276.9329;83.1244;2.3758E-5;-6.3E-7;0;Orbcomm
14.54738596;0.000272;47.0055;81.2424;279.19;80.8677;2.1148E-5;-7.4E-7;0;Orbcomm
14.54738664;0.000271;47.0055;79.3071;280.5936;79.4643;2.0906E-5;-7.5E-7;0;Orbcomm
14.5473874;0.0002699;47.0056;76.7265;282.3861;77.6721;1.9681E-5;-8.1E-7;0;Orbcomm
14.5473884;0.0002684;47.0057;74.4686;284.1112;75.9474;1.9973E-5;-7.9E-7;0;Orbcomm
14.54738913;0.0002673;47.0058;71.888;285.8376;74.2213;1.8939E-5;-8.4E-7;0;Orbcomm
14.54739113;0.0002654;47.0059;67.6946;288.8264;71.2333;2.0175E-5;-7.9E-7;0;Orbcomm
14.54739158;0.0002648;47.0059;67.0494;289.2131;70.8466;2.0154E-5;-7.9E-7;0;Orbcomm
14.54739373;0.0002618;47.006;62.5334;292.4328;67.6279;2.0614E-5;-7.7E-7;0;Orbcomm
14.54739427;0.0002607;47.006;61.2432;293.5165;66.5445;2.1103E-5;-7.5E-7;0;Orbcomm
14.54739589;0.0002585;47.006;57.6949;295.971;64.0908;2.1257E-5;-7.4E-7;0;Orbcomm
